{"type": "FeatureCollection", "features": [{"type": "Feature", "properties": {"name": "Somalia-border flash-flood watch zone", "note": "Dadaab, Hulugho, Liboi and Ijara: heavy storms from the tropical low over southern Somalia (AI-GFS, ECMWF-AIFS) can flood laghas, camps and roads here. Most laghas drain towards Somalia, so water lies for days in flat ground.", "source": "CSG analysis of 3-4 Oct 2026 model charts"}, "geometry": {"type": "Polygon", "coordinates": [[[40.15, 0.35], [41.0, 0.35], [41.0, -1.75], [40.85, -1.9], [40.3, -1.6], [40.1, -1.0], [40.15, 0.35]]]}}]}