{"type": "FeatureCollection", "features": [{"type": "Feature", "properties": {"name": "Ewaso Ng'iro North \u2192 Lagh Dera (indicative course)", "note": "Rain on Mt Kenya's north slopes (Nanyuki\u2013Isiolo) flows down the Ewaso Ng'iro, through the Lorian swamp and into Lagh Dera across Garissa county toward Somalia. Floods reach Habaswein/Modogashe about 5\u20138 days after heavy Mt Kenya rain.", "source": "Indicative trace from HydroSHEDS / county lagha network"}, "geometry": {"type": "LineString", "coordinates": [[37.07, 0.02], [37.35, 0.35], [37.6, 0.55], [37.9, 0.62], [38.3, 0.75], [38.67, 1.07], [39.05, 1.02], [39.49, 1.01], [39.75, 0.85], [40.05, 0.62], [40.4, 0.45], [40.75, 0.35], [41.0, 0.25]]}}]}